{"fetched_at":"2026-07-06T18:35:17.756Z","source":"https://celestrak.org/NORAD/elements/gp.php?GROUP=spire&FORMAT=JSON","constellation":"spire","records":[{"OBJECT_NAME":"LEMUR-2-MYRA","OBJECT_ID":"2025-276EC","EPOCH":"2026-07-06T03:13:09.842016","CLASSIFICATION_TYPE":"U","MEAN_MOTION":15.00519047,"ECCENTRICITY":0.00184328,"INCLINATION":97.5207,"RA_OF_ASC_NODE":257.3957,"ARG_OF_PERICENTER":81.7477,"MEAN_ANOMALY":278.5837,"EPHEMERIS_TYPE":0,"NORAD_CAT_ID":66787,"ELEMENT_SET_NO":999,"REV_AT_EPOCH":3305,"BSTAR":0.00054343281,"MEAN_MOTION_DOT":0.00006819,"MEAN_MOTION_DDOT":0},{"OBJECT_NAME":"LEMUR-2 FIKRETDENGIZ","OBJECT_ID":"2026-004A","EPOCH":"2026-07-05T22:59:45.998592","CLASSIFICATION_TYPE":"U","MEAN_MOTION":14.88472307,"ECCENTRICITY":0.00105673,"INCLINATION":97.8024,"RA_OF_ASC_NODE":185.2292,"ARG_OF_PERICENTER":81.5698,"MEAN_ANOMALY":278.6716,"EPHEMERIS_TYPE":0,"NORAD_CAT_ID":67363,"ELEMENT_SET_NO":999,"REV_AT_EPOCH":2607,"BSTAR":0.00053036621,"MEAN_MOTION_DOT":0.00004876,"MEAN_MOTION_DDOT":0},{"OBJECT_NAME":"TWILIGHT-1 OBJECT B","OBJECT_ID":"2026-004B","EPOCH":"2026-07-05T18:56:21.138720","CLASSIFICATION_TYPE":"U","MEAN_MOTION":14.87772404,"ECCENTRICITY":0.00101878,"INCLINATION":97.8065,"RA_OF_ASC_NODE":185.0689,"ARG_OF_PERICENTER":72.7987,"MEAN_ANOMALY":287.4344,"EPHEMERIS_TYPE":0,"NORAD_CAT_ID":67364,"ELEMENT_SET_NO":999,"REV_AT_EPOCH":2605,"BSTAR":0.00028825626,"MEAN_MOTION_DOT":0.00002579,"MEAN_MOTION_DDOT":0},{"OBJECT_NAME":"LEMUR-2-MARIO-SOUSA","OBJECT_ID":"2026-004C","EPOCH":"2026-07-06T00:09:24.792480","CLASSIFICATION_TYPE":"U","MEAN_MOTION":14.88676989,"ECCENTRICITY":0.00102002,"INCLINATION":97.7997,"RA_OF_ASC_NODE":185.2721,"ARG_OF_PERICENTER":82.5124,"MEAN_ANOMALY":277.7252,"EPHEMERIS_TYPE":0,"NORAD_CAT_ID":67365,"ELEMENT_SET_NO":999,"REV_AT_EPOCH":2609,"BSTAR":0.00061621474,"MEAN_MOTION_DOT":0.00005703,"MEAN_MOTION_DDOT":0},{"OBJECT_NAME":"LEMUR-2-SONNENBLUME","OBJECT_ID":"2026-004E","EPOCH":"2026-07-05T22:34:21.754848","CLASSIFICATION_TYPE":"U","MEAN_MOTION":14.88421442,"ECCENTRICITY":0.00097359,"INCLINATION":97.7992,"RA_OF_ASC_NODE":185.1841,"ARG_OF_PERICENTER":83.8905,"MEAN_ANOMALY":276.3421,"EPHEMERIS_TYPE":0,"NORAD_CAT_ID":67367,"ELEMENT_SET_NO":999,"REV_AT_EPOCH":2608,"BSTAR":0.00043590536,"MEAN_MOTION_DOT":0.00003992,"MEAN_MOTION_DDOT":0},{"OBJECT_NAME":"LEMUR-2-WOBLER","OBJECT_ID":"2026-004F","EPOCH":"2026-07-05T23:57:52.020864","CLASSIFICATION_TYPE":"U","MEAN_MOTION":14.88654041,"ECCENTRICITY":0.00099172,"INCLINATION":97.8043,"RA_OF_ASC_NODE":185.3822,"ARG_OF_PERICENTER":75.1148,"MEAN_ANOMALY":285.1167,"EPHEMERIS_TYPE":0,"NORAD_CAT_ID":67368,"ELEMENT_SET_NO":999,"REV_AT_EPOCH":2609,"BSTAR":0.00050618479,"MEAN_MOTION_DOT":0.00004672,"MEAN_MOTION_DDOT":0},{"OBJECT_NAME":"LEMUR-2-GRAM-E-SUE","OBJECT_ID":"2026-004H","EPOCH":"2026-07-05T23:45:37.855872","CLASSIFICATION_TYPE":"U","MEAN_MOTION":14.88561015,"ECCENTRICITY":0.00088575,"INCLINATION":97.7977,"RA_OF_ASC_NODE":185.249,"ARG_OF_PERICENTER":85.771,"MEAN_ANOMALY":274.4519,"EPHEMERIS_TYPE":0,"NORAD_CAT_ID":67370,"ELEMENT_SET_NO":999,"REV_AT_EPOCH":2609,"BSTAR":0.00032255271,"MEAN_MOTION_DOT":0.00002949,"MEAN_MOTION_DDOT":0},{"OBJECT_NAME":"LEMUR-2-KATIE","OBJECT_ID":"2026-004AA","EPOCH":"2026-07-05T22:58:18.677568","CLASSIFICATION_TYPE":"U","MEAN_MOTION":14.90196965,"ECCENTRICITY":0.00042766,"INCLINATION":97.8044,"RA_OF_ASC_NODE":185.7372,"ARG_OF_PERICENTER":55.0547,"MEAN_ANOMALY":305.1072,"EPHEMERIS_TYPE":0,"NORAD_CAT_ID":67387,"ELEMENT_SET_NO":999,"REV_AT_EPOCH":2610,"BSTAR":0.00063953221,"MEAN_MOTION_DOT":0.00006145,"MEAN_MOTION_DDOT":0},{"OBJECT_NAME":"LEMUR-2-HCS-BAZUS","OBJECT_ID":"2026-004AB","EPOCH":"2026-07-05T22:56:08.083968","CLASSIFICATION_TYPE":"U","MEAN_MOTION":14.90229624,"ECCENTRICITY":0.00036729,"INCLINATION":97.8031,"RA_OF_ASC_NODE":185.7152,"ARG_OF_PERICENTER":54.0963,"MEAN_ANOMALY":306.0595,"EPHEMERIS_TYPE":0,"NORAD_CAT_ID":67388,"ELEMENT_SET_NO":999,"REV_AT_EPOCH":2610,"BSTAR":0.00034979759,"MEAN_MOTION_DOT":0.00003338,"MEAN_MOTION_DDOT":0}]}
